IRIDIUM 144             
1 43249U 18030A   24033.75212180  .00000029  00000+0  32631-5 0  9992
2 43249  86.3964 292.1011 0001921  88.7619 271.3797 14.34217858306095
IRIDIUM 149             
1 43250U 18030B   24033.75846471  .00000037  00000+0  61351-5 0  9990
2 43250  86.3962 292.0749 0001951  91.1752 268.9667 14.34218026306110
IRIDIUM 157             
1 43251U 18030C   24033.77749446  .00000344  00000+0  11572-3 0  9996
2 43251  86.3965 292.1007 0002317  82.0420 278.1039 14.34217968306097
IRIDIUM 140             
1 43252U 18030D   24033.79651961  .00000166  00000+0  52385-4 0  9993
2 43252  86.3966 292.1078 0001718  91.4534 268.6858 14.34217948306159
IRIDIUM 145             
1 43253U 18030E   24033.78383459 -.00000019  00000+0 -13709-4 0  9993
2 43253  86.3965 292.0870 0001874  95.1237 265.0172 14.34216326306083
IRIDIUM 146             
1 43254U 18030F   24033.76480735  .00000645  00000+0  22324-3 0  9992
2 43254  86.3964 292.1102 0001981  94.3523 265.7899 14.34218287306092
IRIDIUM 148             
1 43255U 18030G   24033.80286304  .00000075  00000+0  19854-4 0  9996
2 43255  86.3966 292.1243 0002371  95.1308 265.0158 14.34217164306134
IRIDIUM 142             
1 43256U 18030H   24033.77114826  .00000156  00000+0  48516-4 0  9999
2 43256  86.3963 292.0580 0002122  96.7012 263.4425 14.34217320306096
